[{"OBJECT_NAME":"ONEWEB-0545","OBJECT_ID":"2022-166F","EPOCH":"2026-02-09T04:30:29.628288","MEAN_MOTION":13.21823825,"ECCENTRICITY":0.00016883,"INCLINATION":87.9185,"RA_OF_ASC_NODE":269.5178,"ARG_OF_PERICENTER":65.8276,"MEAN_ANOMALY":294.3035,"EPHEMERIS_TYPE":0,"CLASSIFICATION_TYPE":"U","NORAD_CAT_ID":54647,"ELEMENT_SET_NO":999,"REV_AT_EPOCH":15459,"BSTAR":5.3685393e-5,"MEAN_MOTION_DOT":3.5e-7,"MEAN_MOTION_DDOT":0},{"OBJECT_NAME":"ONEWEB-0580","OBJECT_ID":"2022-166G","EPOCH":"2026-02-09T03:52:35.088672","MEAN_MOTION":13.21826628,"ECCENTRICITY":0.00017763,"INCLINATION":87.9185,"RA_OF_ASC_NODE":269.5233,"ARG_OF_PERICENTER":70.1138,"MEAN_ANOMALY":290.0187,"EPHEMERIS_TYPE":0,"CLASSIFICATION_TYPE":"U","NORAD_CAT_ID":54648,"ELEMENT_SET_NO":999,"REV_AT_EPOCH":15463,"BSTAR":-5.9559327e-5,"MEAN_MOTION_DOT":-1.2e-7,"MEAN_MOTION_DDOT":0},{"OBJECT_NAME":"ONEWEB-0582","OBJECT_ID":"2022-166H","EPOCH":"2026-02-09T03:05:10.771296","MEAN_MOTION":13.21823579,"ECCENTRICITY":0.00016747,"INCLINATION":87.9186,"RA_OF_ASC_NODE":269.5221,"ARG_OF_PERICENTER":68.5093,"MEAN_ANOMALY":291.622,"EPHEMERIS_TYPE":0,"CLASSIFICATION_TYPE":"U","NORAD_CAT_ID":54649,"ELEMENT_SET_NO":999,"REV_AT_EPOCH":15460,"BSTAR":0.00014673967,"MEAN_MOTION_DOT":7.4e-7,"MEAN_MOTION_DDOT":0},{"OBJECT_NAME":"ONEWEB-0583","OBJECT_ID":"2022-166J","EPOCH":"2026-02-09T03:21:46.209024","MEAN_MOTION":13.21826137,"ECCENTRICITY":0.00014943,"INCLINATION":87.9183,"RA_OF_ASC_NODE":269.5433,"ARG_OF_PERICENTER":81.4178,"MEAN_ANOMALY":278.7125,"EPHEMERIS_TYPE":0,"CLASSIFICATION_TYPE":"U","NORAD_CAT_ID":54650,"ELEMENT_SET_NO":999,"REV_AT_EPOCH":15461,"BSTAR":-0.00059904041,"MEAN_MOTION_DOT":-2.34e-6,"MEAN_MOTION_DDOT":0},{"OBJECT_NAME":"ONEWEB-0584","OBJECT_ID":"2022-166K","EPOCH":"2026-02-09T03:50:12.778368","MEAN_MOTION":13.21824488,"ECCENTRICITY":0.00017521,"INCLINATION":87.9186,"RA_OF_ASC_NODE":269.5265,"ARG_OF_PERICENTER":75.3389,"MEAN_ANOMALY":284.7939,"EPHEMERIS_TYPE":0,"CLASSIFICATION_TYPE":"U","NORAD_CAT_ID":54651,"ELEMENT_SET_NO":999,"REV_AT_EPOCH":15460,"BSTAR":5.3548038e-5,"MEAN_MOTION_DOT":3.5e-7,"MEAN_MOTION_DDOT":0},{"OBJECT_NAME":"ONEWEB-0585","OBJECT_ID":"2022-166L","EPOCH":"2026-02-09T04:25:46.050528","MEAN_MOTION":13.21826347,"ECCENTRICITY":0.00015738,"INCLINATION":87.9187,"RA_OF_ASC_NODE":269.5063,"ARG_OF_PERICENTER":86.7391,"MEAN_ANOMALY":273.3922,"EPHEMERIS_TYPE":0,"CLASSIFICATION_TYPE":"U","NORAD_CAT_ID":54652,"ELEMENT_SET_NO":999,"REV_AT_EPOCH":15461,"BSTAR":6.9268571e-5,"MEAN_MOTION_DOT":4.2e-7,"MEAN_MOTION_DDOT":0},{"OBJECT_NAME":"ONEWEB-0586","OBJECT_ID":"2022-166M","EPOCH":"2026-02-09T02:55:43.702176","MEAN_MOTION":13.21824313,"ECCENTRICITY":0.00015407,"INCLINATION":87.9194,"RA_OF_ASC_NODE":269.544,"ARG_OF_PERICENTER":83.5677,"MEAN_ANOMALY":276.5633,"EPHEMERIS_TYPE":0,"CLASSIFICATION_TYPE":"U","NORAD_CAT_ID":54653,"ELEMENT_SET_NO":999,"REV_AT_EPOCH":15460,"BSTAR":0.0012772131,"MEAN_MOTION_DOT":5.41e-6,"MEAN_MOTION_DDOT":0},{"OBJECT_NAME":"ONEWEB-0587","OBJECT_ID":"2022-166N","EPOCH":"2026-02-09T03:09:57.152736","MEAN_MOTION":13.21825195,"ECCENTRICITY":0.00015615,"INCLINATION":87.9196,"RA_OF_ASC_NODE":269.5033,"ARG_OF_PERICENTER":98.528,"MEAN_ANOMALY":261.603,"EPHEMERIS_TYPE":0,"CLASSIFICATION_TYPE":"U","NORAD_CAT_ID":54654,"ELEMENT_SET_NO":999,"REV_AT_EPOCH":15476,"BSTAR":4.6538557e-5,"MEAN_MOTION_DOT":3.2e-7,"MEAN_MOTION_DDOT":0},{"OBJECT_NAME":"ONEWEB-0589","OBJECT_ID":"2022-166P","EPOCH":"2026-02-09T02:50:58.602912","MEAN_MOTION":13.21824412,"ECCENTRICITY":0.00020404,"INCLINATION":87.9184,"RA_OF_ASC_NODE":269.534,"ARG_OF_PERICENTER":58.3472,"MEAN_ANOMALY":301.7861,"EPHEMERIS_TYPE":0,"CLASSIFICATION_TYPE":"U","NORAD_CAT_ID":54655,"ELEMENT_SET_NO":999,"REV_AT_EPOCH":15462,"BSTAR":0.00028126085,"MEAN_MOTION_DOT":1.29e-6,"MEAN_MOTION_DDOT":0},{"OBJECT_NAME":"ONEWEB-0590","OBJECT_ID":"2022-166Q","EPOCH":"2026-02-09T03:26:19.418784","MEAN_MOTION":13.2182429,"ECCENTRICITY":0.00020301,"INCLINATION":87.9188,"RA_OF_ASC_NODE":269.5076,"ARG_OF_PERICENTER":86.6763,"MEAN_ANOMALY":273.4603,"EPHEMERIS_TYPE":0,"CLASSIFICATION_TYPE":"U","NORAD_CAT_ID":54656,"ELEMENT_SET_NO":999,"REV_AT_EPOCH":15461,"BSTAR":4.0128549e-5,"MEAN_MOTION_DOT":3.0e-7,"MEAN_MOTION_DDOT":0},{"OBJECT_NAME":"ONEWEB-0591","OBJECT_ID":"2022-166R","EPOCH":"2026-02-09T03:43:07.103712","MEAN_MOTION":13.21826274,"ECCENTRICITY":0.00016929,"INCLINATION":87.9181,"RA_OF_ASC_NODE":269.5291,"ARG_OF_PERICENTER":80.8577,"MEAN_ANOMALY":279.2749,"EPHEMERIS_TYPE":0,"CLASSIFICATION_TYPE":"U","NORAD_CAT_ID":54657,"ELEMENT_SET_NO":999,"REV_AT_EPOCH":15464,"BSTAR":3.6384978e-5,"MEAN_MOTION_DOT":2.8e-7,"MEAN_MOTION_DDOT":0},{"OBJECT_NAME":"ONEWEB-0592","OBJECT_ID":"2022-166S","EPOCH":"2026-02-09T03:47:52.196928","MEAN_MOTION":13.21825678,"ECCENTRICITY":0.00016291,"INCLINATION":87.9193,"RA_OF_ASC_NODE":269.4958,"ARG_OF_PERICENTER":83.2412,"MEAN_ANOMALY":276.8907,"EPHEMERIS_TYPE":0,"CLASSIFICATION_TYPE":"U","NORAD_CAT_ID":54658,"ELEMENT_SET_NO":999,"REV_AT_EPOCH":15452,"BSTAR":-7.9118413e-5,"MEAN_MOTION_DOT":-2.0e-7,"MEAN_MOTION_DDOT":0},{"OBJECT_NAME":"ONEWEB-0593","OBJECT_ID":"2022-166T","EPOCH":"2026-02-09T04:21:01.423008","MEAN_MOTION":13.21825173,"ECCENTRICITY":0.00014686,"INCLINATION":87.9188,"RA_OF_ASC_NODE":269.5126,"ARG_OF_PERICENTER":79.4677,"MEAN_ANOMALY":280.6622,"EPHEMERIS_TYPE":0,"CLASSIFICATION_TYPE":"U","NORAD_CAT_ID":54659,"ELEMENT_SET_NO":999,"REV_AT_EPOCH":15463,"BSTAR":8.7905979e-5,"MEAN_MOTION_DOT":4.9e-7,"MEAN_MOTION_DDOT":0},{"OBJECT_NAME":"ONEWEB-0594","OBJECT_ID":"2022-166U","EPOCH":"2026-02-09T03:00:28.082592","MEAN_MOTION":13.21826,"ECCENTRICITY":0.00014849,"INCLINATION":87.9183,"RA_OF_ASC_NODE":269.5418,"ARG_OF_PERICENTER":87.0374,"MEAN_ANOMALY":273.093,"EPHEMERIS_TYPE":0,"CLASSIFICATION_TYPE":"U","NORAD_CAT_ID":54660,"ELEMENT_SET_NO":999,"REV_AT_EPOCH":15464,"BSTAR":0.00029196111,"MEAN_MOTION_DOT":1.34e-6,"MEAN_MOTION_DDOT":0},{"OBJECT_NAME":"ONEWEB-0595","OBJECT_ID":"2022-166V","EPOCH":"2026-02-09T04:16:17.191200","MEAN_MOTION":13.21825087,"ECCENTRICITY":0.00016341,"INCLINATION":87.9186,"RA_OF_ASC_NODE":269.5034,"ARG_OF_PERICENTER":90.5218,"MEAN_ANOMALY":269.6103,"EPHEMERIS_TYPE":0,"CLASSIFICATION_TYPE":"U","NORAD_CAT_ID":54661,"ELEMENT_SET_NO":999,"REV_AT_EPOCH":15462,"BSTAR":0.00015319745,"MEAN_MOTION_DOT":7.6e-7,"MEAN_MOTION_DDOT":0},{"OBJECT_NAME":"ONEWEB-0596","OBJECT_ID":"2022-166W","EPOCH":"2026-02-09T03:38:22.477920","MEAN_MOTION":13.2182609,"ECCENTRICITY":0.00016199,"INCLINATION":87.9185,"RA_OF_ASC_NODE":269.5267,"ARG_OF_PERICENTER":87.3609,"MEAN_ANOMALY":272.771,"EPHEMERIS_TYPE":0,"CLASSIFICATION_TYPE":"U","NORAD_CAT_ID":54662,"ELEMENT_SET_NO":999,"REV_AT_EPOCH":15462,"BSTAR":-0.00013180556,"MEAN_MOTION_DOT":-4.1e-7,"MEAN_MOTION_DDOT":0},{"OBJECT_NAME":"ONEWEB-0597","OBJECT_ID":"2022-166X","EPOCH":"2026-02-09T03:12:17.918208","MEAN_MOTION":13.21824379,"ECCENTRICITY":0.00015973,"INCLINATION":87.9187,"RA_OF_ASC_NODE":269.5351,"ARG_OF_PERICENTER":78.9143,"MEAN_ANOMALY":281.217,"EPHEMERIS_TYPE":0,"CLASSIFICATION_TYPE":"U","NORAD_CAT_ID":54663,"ELEMENT_SET_NO":999,"REV_AT_EPOCH":15462,"BSTAR":0.00026656641,"MEAN_MOTION_DOT":1.23e-6,"MEAN_MOTION_DDOT":0}]
