ONEWEB-0545             
1 54647U 22166F   26040.18784292  .00000035  00000+0  53685-4 0  9994
2 54647  87.9185 269.5178 0001688  65.8276 294.3035 13.21823825154596
ONEWEB-0580             
1 54648U 22166G   26040.16151723 -.00000012  00000+0 -59559-4 0  9993
2 54648  87.9185 269.5233 0001776  70.1138 290.0187 13.21826628154633
ONEWEB-0582             
1 54649U 22166H   26040.12859689  .00000074  00000+0  14674-3 0  9990
2 54649  87.9186 269.5221 0001674  68.5093 291.6220 13.21823579154604
ONEWEB-0583             
1 54650U 22166J   26040.14011816 -.00000234  00000+0 -59904-3 0  9991
2 54650  87.9183 269.5433 0001494  81.4178 278.7125 13.21826137154610
ONEWEB-0584             
1 54651U 22166K   26040.15987012  .00000035  00000+0  53548-4 0  9999
2 54651  87.9186 269.5265 0001752  75.3389 284.7939 13.21824488154606
ONEWEB-0585             
1 54652U 22166L   26040.18456077  .00000042  00000+0  69269-4 0  9990
2 54652  87.9187 269.5063 0001573  86.7391 273.3922 13.21826347154617
ONEWEB-0586             
1 54653U 22166M   26040.12203359  .00000541  00000+0  12772-2 0  9997
2 54653  87.9194 269.5440 0001540  83.5677 276.5633 13.21824313154605
ONEWEB-0587             
1 54654U 22166N   26040.13191149  .00000032  00000+0  46539-4 0  9997
2 54654  87.9196 269.5033 0001561  98.5280 261.6030 13.21825195154767
ONEWEB-0589             
1 54655U 22166P   26040.11873383  .00000129  00000+0  28126-3 0  9991
2 54655  87.9184 269.5340 0002040  58.3472 301.7861 13.21824412154620
ONEWEB-0590             
1 54656U 22166Q   26040.14328031  .00000030  00000+0  40129-4 0  9999
2 54656  87.9188 269.5076 0002030  86.6763 273.4603 13.21824290154619
ONEWEB-0591             
1 54657U 22166R   26040.15494333  .00000028  00000+0  36385-4 0  9996
2 54657  87.9181 269.5291 0001692  80.8577 279.2749 13.21826274154646
ONEWEB-0592             
1 54658U 22166S   26040.15824302 -.00000020  00000+0 -79118-4 0  9995
2 54658  87.9193 269.4958 0001629  83.2412 276.8907 13.21825678154527
ONEWEB-0593             
1 54659U 22166T   26040.18126647  .00000049  00000+0  87906-4 0  9999
2 54659  87.9188 269.5126 0001468  79.4677 280.6622 13.21825173154630
ONEWEB-0594             
1 54660U 22166U   26040.12532503  .00000134  00000+0  29196-3 0  9998
2 54660  87.9183 269.5418 0001484  87.0374 273.0930 13.21826000154647
ONEWEB-0595             
1 54661U 22166V   26040.17797675  .00000076  00000+0  15320-3 0  9996
2 54661  87.9186 269.5034 0001634  90.5218 269.6103 13.21825087154623
ONEWEB-0596             
1 54662U 22166W   26040.15164905 -.00000041  00000+0 -13181-3 0  9996
2 54662  87.9185 269.5267 0001619  87.3609 272.7710 13.21826090154626
ONEWEB-0597             
1 54663U 22166X   26040.13354072  .00000123  00000+0  26657-3 0  9992
2 54663  87.9187 269.5351 0001597  78.9143 281.2170 13.21824379154620
